0 SL-16 DEB
1 27689U 01056H   13282.80541378 -.00000011  00000-0  62501-4 0  7298
2 27689 100.0676 017.8320 0208517 053.9615 060.0399 13.25699715572163
0 SL-16 DEB
1 27689U 01056H   13285.20050219 -.00000044  00000-0 -26565-5 0  7304
2 27689 100.0680 020.1526 0208471 048.3400 330.6355 13.25700024572481
0 SL-16 DEB
1 27689U 01056H   13287.78624917  .00000011  00000-0  10953-3 0  7316
2 27689 100.0681 022.6580 0208407 042.2651 071.1632 13.25699759572824
0 SL-16 DEB
1 27689U 01056H   13289.82377736  .00000012  00000-0  11183-3 0  7325
2 27689 100.0679 024.6324 0208360 037.4844 075.2982 13.25700032573097
0 SL-16 DEB
1 27689U 01056H   13291.86313403  .00000028  00000-0  14441-3 0  7331
2 27689 100.0675 026.6084 0208306 032.6920 088.1698 13.25700203573367
0 SL-16 DEB
1 27689U 01056H   13294.19063839  .00000023  00000-0  13373-3 0  7344
2 27689 100.0674 028.8637 0208238 027.2216 036.2332 13.25700515573675
